ORBCOMM FM40            
1 33065U 08031F   25204.61771466  .00001941  00000+0  26807-3 0  9990
2 33065  48.4413 153.8524 0006126 189.4893 340.8321 14.82141273919562
VESSELSAT 1             
1 37840U 11058C   25204.43970616  .00000354  00000+0  48310-4 0  9997
2 37840  19.9607 234.5262 0013504 224.9143 135.0169 14.11358806711436
ORBCOMM FM109           
1 40086U 14040A   25204.70528024  .00000446  00000+0  13225-3 0  9997
2 40086  47.0019 203.8196 0001224 192.2647 167.8209 14.58211806586390
ORBCOMM FM107           
1 40087U 14040B   25204.73210247  .00000468  00000+0  13671-3 0  9995
2 40087  47.0037 204.6438 0000272  14.4482 345.6412 14.58286903586474
ORBCOMM FM106           
1 40088U 14040C   25204.87929885  .00000869  00000+0  17639-3 0  9999
2 40088  47.0618  23.1107 0017423 237.5566 122.3641 14.69503716588870
ORBCOMM FM111           
1 40089U 14040D   25204.51610487  .00001980  00000+0  24451-3 0  9991
2 40089  47.0010 230.1141 0030431   4.2041 355.9106 14.86436018595637
